[{"OBJECT_NAME":"STARLINK-3114","OBJECT_ID":"2021-104U","EPOCH":"2026-03-09T17:58:10.357536","MEAN_MOTION":15.08836725,"ECCENTRICITY":0.0001485,"INCLINATION":53.2177,"RA_OF_ASC_NODE":228.8579,"ARG_OF_PERICENTER":100.3258,"MEAN_ANOMALY":259.7902,"EPHEMERIS_TYPE":0,"CLASSIFICATION_TYPE":"U","NORAD_CAT_ID":49426,"ELEMENT_SET_NO":999,"REV_AT_EPOCH":23863,"BSTAR":2.1457878e-5,"MEAN_MOTION_DOT":5.4e-7,"MEAN_MOTION_DDOT":0},{"OBJECT_NAME":"THOR ABLESTAR DEB","OBJECT_ID":"1961-015EX","EPOCH":"2026-03-09T22:58:31.837152","MEAN_MOTION":15.04262729,"ECCENTRICITY":0.00191468,"INCLINATION":67.4961,"RA_OF_ASC_NODE":12.7011,"ARG_OF_PERICENTER":32.2919,"MEAN_ANOMALY":327.9391,"EPHEMERIS_TYPE":0,"CLASSIFICATION_TYPE":"U","NORAD_CAT_ID":461,"ELEMENT_SET_NO":999,"REV_AT_EPOCH":37086,"BSTAR":0.0020469071,"MEAN_MOTION_DOT":0.00028661,"MEAN_MOTION_DDOT":0}]
